STARLINK-3278           
1 50830U 22001AD  26068.58404642 -.00000386  00000+0 -61621-5 0  9995
2 50830  53.2180 179.5990 0001409  80.1291 279.9861 15.08837852230253
RAISE-4                 
1 67073U 25297B   26068.97636248  .00005682  00000+0  37087-3 0  9993
2 67073  97.4953 219.2703 0012713  22.7159 337.4629 15.08174958 12933
